[{"OBJECT_NAME":"STARLINK-6133","OBJECT_ID":"2023-090AK","EPOCH":"2026-03-19T22:00:00.999936","MEAN_MOTION":15.22969062,"ECCENTRICITY":0.00020946,"INCLINATION":43.0005,"RA_OF_ASC_NODE":205.1281,"ARG_OF_PERICENTER":259.4963,"MEAN_ANOMALY":69.8477,"EPHEMERIS_TYPE":0,"CLASSIFICATION_TYPE":"U","NORAD_CAT_ID":57134,"ELEMENT_SET_NO":999,"REV_AT_EPOCH":573,"BSTAR":0.0025953653,"MEAN_MOTION_DOT":0.00062453,"MEAN_MOTION_DDOT":0},{"OBJECT_NAME":"STARLINK-6127","OBJECT_ID":"2023-090AL","EPOCH":"2026-03-19T22:00:00.999936","MEAN_MOTION":15.222374,"ECCENTRICITY":0.00017777,"INCLINATION":43.0007,"RA_OF_ASC_NODE":204.8628,"ARG_OF_PERICENTER":280.1731,"MEAN_ANOMALY":162.1177,"EPHEMERIS_TYPE":0,"CLASSIFICATION_TYPE":"U","NORAD_CAT_ID":57135,"ELEMENT_SET_NO":999,"REV_AT_EPOCH":567,"BSTAR":0.003474992,"MEAN_MOTION_DOT":0.00082129,"MEAN_MOTION_DDOT":0},{"OBJECT_NAME":"STARLINK-6112","OBJECT_ID":"2023-090AM","EPOCH":"2026-03-19T22:00:00.999936","MEAN_MOTION":15.23585879,"ECCENTRICITY":0.00020582,"INCLINATION":43.0005,"RA_OF_ASC_NODE":205.024,"ARG_OF_PERICENTER":284.6778,"MEAN_ANOMALY":90.7412,"EPHEMERIS_TYPE":0,"CLASSIFICATION_TYPE":"U","NORAD_CAT_ID":57136,"ELEMENT_SET_NO":999,"REV_AT_EPOCH":547,"BSTAR":0.038760693,"MEAN_MOTION_DOT":0.01031613,"MEAN_MOTION_DDOT":0},{"OBJECT_NAME":"STARLINK-5347","OBJECT_ID":"2023-090AN","EPOCH":"2026-03-19T22:00:00.999936","MEAN_MOTION":15.22419582,"ECCENTRICITY":0.00021061,"INCLINATION":43.0006,"RA_OF_ASC_NODE":205.0188,"ARG_OF_PERICENTER":282.2623,"MEAN_ANOMALY":94.7007,"EPHEMERIS_TYPE":0,"CLASSIFICATION_TYPE":"U","NORAD_CAT_ID":57137,"ELEMENT_SET_NO":999,"REV_AT_EPOCH":577,"BSTAR":0.040385129,"MEAN_MOTION_DOT":0.01024232,"MEAN_MOTION_DDOT":0},{"OBJECT_NAME":"STARLINK-5336","OBJECT_ID":"2023-090AP","EPOCH":"2026-03-19T22:00:00.999936","MEAN_MOTION":15.22841018,"ECCENTRICITY":0.00016166,"INCLINATION":43.0038,"RA_OF_ASC_NODE":204.9931,"ARG_OF_PERICENTER":279.7735,"MEAN_ANOMALY":108.5,"EPHEMERIS_TYPE":0,"CLASSIFICATION_TYPE":"U","NORAD_CAT_ID":57138,"ELEMENT_SET_NO":999,"REV_AT_EPOCH":577,"BSTAR":0.024475129,"MEAN_MOTION_DOT":0.00628462,"MEAN_MOTION_DDOT":0},{"OBJECT_NAME":"STARLINK-5355","OBJECT_ID":"2023-090AQ","EPOCH":"2026-03-19T22:00:00.999936","MEAN_MOTION":15.21283486,"ECCENTRICITY":0.00021437,"INCLINATION":43,"RA_OF_ASC_NODE":204.9755,"ARG_OF_PERICENTER":279.6822,"MEAN_ANOMALY":113.142,"EPHEMERIS_TYPE":0,"CLASSIFICATION_TYPE":"U","NORAD_CAT_ID":57139,"ELEMENT_SET_NO":999,"REV_AT_EPOCH":572,"BSTAR":0.0030033091,"MEAN_MOTION_DOT":0.00068853,"MEAN_MOTION_DDOT":0},{"OBJECT_NAME":"STARLINK-5357","OBJECT_ID":"2023-090AS","EPOCH":"2026-03-19T22:00:00.999936","MEAN_MOTION":15.22714676,"ECCENTRICITY":0.00021093,"INCLINATION":43.0004,"RA_OF_ASC_NODE":204.814,"ARG_OF_PERICENTER":296.3765,"MEAN_ANOMALY":161.9901,"EPHEMERIS_TYPE":0,"CLASSIFICATION_TYPE":"U","NORAD_CAT_ID":57141,"ELEMENT_SET_NO":999,"REV_AT_EPOCH":557,"BSTAR":0.0026901021,"MEAN_MOTION_DOT":0.0006427,"MEAN_MOTION_DDOT":0},{"OBJECT_NAME":"STARLINK-5361","OBJECT_ID":"2023-090AT","EPOCH":"2026-03-19T22:00:00.999936","MEAN_MOTION":15.20911738,"ECCENTRICITY":0.0001526,"INCLINATION":43.0025,"RA_OF_ASC_NODE":205.0303,"ARG_OF_PERICENTER":283.4907,"MEAN_ANOMALY":86.3352,"EPHEMERIS_TYPE":0,"CLASSIFICATION_TYPE":"U","NORAD_CAT_ID":57142,"ELEMENT_SET_NO":999,"REV_AT_EPOCH":562,"BSTAR":0.02870423,"MEAN_MOTION_DOT":0.00693273,"MEAN_MOTION_DDOT":0},{"OBJECT_NAME":"STARLINK-5358","OBJECT_ID":"2023-090AU","EPOCH":"2026-03-19T22:00:00.999936","MEAN_MOTION":15.21565979,"ECCENTRICITY":0.00019624,"INCLINATION":43,"RA_OF_ASC_NODE":204.9141,"ARG_OF_PERICENTER":289.6829,"MEAN_ANOMALY":127.6705,"EPHEMERIS_TYPE":0,"CLASSIFICATION_TYPE":"U","NORAD_CAT_ID":57143,"ELEMENT_SET_NO":999,"REV_AT_EPOCH":577,"BSTAR":0.0031731699,"MEAN_MOTION_DOT":0.00073414,"MEAN_MOTION_DDOT":0},{"OBJECT_NAME":"STARLINK-5150","OBJECT_ID":"2023-090AV","EPOCH":"2026-03-19T22:00:00.999936","MEAN_MOTION":15.21953515,"ECCENTRICITY":0.0001977,"INCLINATION":42.9999,"RA_OF_ASC_NODE":204.9346,"ARG_OF_PERICENTER":283.079,"MEAN_ANOMALY":125.9182,"EPHEMERIS_TYPE":0,"CLASSIFICATION_TYPE":"U","NORAD_CAT_ID":57144,"ELEMENT_SET_NO":999,"REV_AT_EPOCH":562,"BSTAR":0.0030367706,"MEAN_MOTION_DOT":0.00071033,"MEAN_MOTION_DDOT":0},{"OBJECT_NAME":"STARLINK-5768","OBJECT_ID":"2023-090AW","EPOCH":"2026-03-19T22:00:00.999936","MEAN_MOTION":15.17858506,"ECCENTRICITY":0.000173,"INCLINATION":43.0001,"RA_OF_ASC_NODE":205.2465,"ARG_OF_PERICENTER":263.9988,"MEAN_ANOMALY":11.0264,"EPHEMERIS_TYPE":0,"CLASSIFICATION_TYPE":"U","NORAD_CAT_ID":57145,"ELEMENT_SET_NO":999,"REV_AT_EPOCH":572,"BSTAR":0.0032236247,"MEAN_MOTION_DOT":0.00066882,"MEAN_MOTION_DDOT":0},{"OBJECT_NAME":"STARLINK-5791","OBJECT_ID":"2023-090AX","EPOCH":"2026-03-19T22:00:00.999936","MEAN_MOTION":15.1982894,"ECCENTRICITY":0.00023711,"INCLINATION":43.0007,"RA_OF_ASC_NODE":205.0478,"ARG_OF_PERICENTER":273.5154,"MEAN_ANOMALY":87.7618,"EPHEMERIS_TYPE":0,"CLASSIFICATION_TYPE":"U","NORAD_CAT_ID":57146,"ELEMENT_SET_NO":999,"REV_AT_EPOCH":562,"BSTAR":0.0030443615,"MEAN_MOTION_DOT":0.00066867,"MEAN_MOTION_DDOT":0},{"OBJECT_NAME":"STARLINK-5765","OBJECT_ID":"2023-090AY","EPOCH":"2026-03-19T22:00:00.999936","MEAN_MOTION":15.16204561,"ECCENTRICITY":0.00014489,"INCLINATION":43.0001,"RA_OF_ASC_NODE":205.2735,"ARG_OF_PERICENTER":259.9369,"MEAN_ANOMALY":0.4964,"EPHEMERIS_TYPE":0,"CLASSIFICATION_TYPE":"U","NORAD_CAT_ID":57147,"ELEMENT_SET_NO":999,"REV_AT_EPOCH":572,"BSTAR":0.0014621831,"MEAN_MOTION_DOT":0.00028648,"MEAN_MOTION_DDOT":0},{"OBJECT_NAME":"STARLINK-5788","OBJECT_ID":"2023-090AZ","EPOCH":"2026-03-19T22:00:00.999936","MEAN_MOTION":15.17148698,"ECCENTRICITY":0.00024375,"INCLINATION":43.0011,"RA_OF_ASC_NODE":205.1186,"ARG_OF_PERICENTER":268.1132,"MEAN_ANOMALY":61.0736,"EPHEMERIS_TYPE":0,"CLASSIFICATION_TYPE":"U","NORAD_CAT_ID":57148,"ELEMENT_SET_NO":999,"REV_AT_EPOCH":578,"BSTAR":0.0031186642,"MEAN_MOTION_DOT":0.00063358,"MEAN_MOTION_DDOT":0},{"OBJECT_NAME":"STARLINK-5778","OBJECT_ID":"2023-090BA","EPOCH":"2026-03-19T16:00:08.119296","MEAN_MOTION":15.02536206,"ECCENTRICITY":0.00012998,"INCLINATION":43.0027,"RA_OF_ASC_NODE":181.4171,"ARG_OF_PERICENTER":268.0686,"MEAN_ANOMALY":92.0008,"EPHEMERIS_TYPE":0,"CLASSIFICATION_TYPE":"U","NORAD_CAT_ID":57149,"ELEMENT_SET_NO":999,"REV_AT_EPOCH":15236,"BSTAR":8.31617e-7,"MEAN_MOTION_DOT":-1.92e-6,"MEAN_MOTION_DDOT":0},{"OBJECT_NAME":"STARLINK-5780","OBJECT_ID":"2023-090BB","EPOCH":"2026-03-19T17:48:08.687808","MEAN_MOTION":15.09555057,"ECCENTRICITY":0.00016321,"INCLINATION":43.0007,"RA_OF_ASC_NODE":206.3119,"ARG_OF_PERICENTER":288.4002,"MEAN_ANOMALY":71.6665,"EPHEMERIS_TYPE":0,"CLASSIFICATION_TYPE":"U","NORAD_CAT_ID":57150,"ELEMENT_SET_NO":999,"REV_AT_EPOCH":15208,"BSTAR":0.00029979938,"MEAN_MOTION_DOT":4.681e-5,"MEAN_MOTION_DDOT":0}]
