STARLINK-6133           
1 57134U 23090AK  26078.91667824  .00062453  00000+0  25954-2 0  9996
2 57134  43.0005 205.1281 0002094 259.4963  69.8477 15.22969062  5734
STARLINK-6127           
1 57135U 23090AL  26078.91667824  .00082129  00000+0  34750-2 0  9993
2 57135  43.0007 204.8628 0001777 280.1731 162.1177 15.22237400  5670
STARLINK-6112           
1 57136U 23090AM  26078.91667824  .01031613  00000+0  38761-1 0  9992
2 57136  43.0005 205.0240 0002058 284.6778  90.7412 15.23585879  5478
STARLINK-5347           
1 57137U 23090AN  26078.91667824  .01024232  00000+0  40385-1 0  9997
2 57137  43.0006 205.0188 0002106 282.2623  94.7007 15.22419582  5771
STARLINK-5336           
1 57138U 23090AP  26078.91667824  .00628462  00000+0  24475-1 0  9994
2 57138  43.0038 204.9931 0001616 279.7735 108.5000 15.22841018  5771
STARLINK-5355           
1 57139U 23090AQ  26078.91667824  .00068853  00000+0  30033-2 0  9995
2 57139  43.0000 204.9755 0002143 279.6822 113.1420 15.21283486  5728
STARLINK-5357           
1 57141U 23090AS  26078.91667824  .00064270  00000+0  26901-2 0  9996
2 57141  43.0004 204.8140 0002109 296.3765 161.9901 15.22714676  5575
STARLINK-5361           
1 57142U 23090AT  26078.91667824  .00693273  00000+0  28704-1 0  9990
2 57142  43.0025 205.0303 0001526 283.4907  86.3352 15.20911738  5622
STARLINK-5358           
1 57143U 23090AU  26078.91667824  .00073414  00000+0  31732-2 0  9996
2 57143  43.0000 204.9141 0001962 289.6829 127.6705 15.21565979  5779
STARLINK-5150           
1 57144U 23090AV  26078.91667824  .00071033  00000+0  30368-2 0  9996
2 57144  42.9999 204.9346 0001977 283.0790 125.9182 15.21953515  5624
STARLINK-5768           
1 57145U 23090AW  26078.91667824  .00066882  00000+0  32236-2 0  9999
2 57145  43.0001 205.2465 0001730 263.9988  11.0264 15.17858506  5726
STARLINK-5791           
1 57146U 23090AX  26078.91667824  .00066867  00000+0  30444-2 0  9992
2 57146  43.0007 205.0478 0002371 273.5154  87.7618 15.19828940  5622
STARLINK-5765           
1 57147U 23090AY  26078.91667824  .00028648  00000+0  14622-2 0  9998
2 57147  43.0001 205.2735 0001448 259.9369   0.4964 15.16204561  5726
STARLINK-5788           
1 57148U 23090AZ  26078.91667824  .00063358  00000+0  31187-2 0  9991
2 57148  43.0011 205.1186 0002437 268.1132  61.0736 15.17148698  5781
STARLINK-5778           
1 57149U 23090BA  26078.66676064 -.00000192  00000+0  83162-6 0  9992
2 57149  43.0027 181.4171 0001299 268.0686  92.0008 15.02536206152360
STARLINK-5780           
1 57150U 23090BB  26078.74176722  .00004681  00000+0  29980-3 0  9990
2 57150  43.0007 206.3119 0001632 288.4002  71.6665 15.09555057152081
